[
    {
        "Altitude(m)": 553488.5176753348,
        "Argument of Periapsis(deg)": 0.0,
        "Eccentricity": 0.0,
        "Inclination(deg)": 53.0,
        "Latitude(deg)": 13.004310524660061,
        "Longitude(deg)": 20.063871202118076,
        "Mean Anomaly(deg)": -196.36359999999993,
        "RAAN(deg)": 310.0,
        "Satellite Name": "Starlink Shell 1 1374",
        "Satellite Number": 1374,
        "Semi-Major Axis(m)": 6931778.249405717,
        "Time(s)": 0
    },
    {
        "Altitude(m)": 553483.8671080902,
        "Argument of Periapsis(deg)": 0.00034857847951123687,
        "Eccentricity": 0.0,
        "Inclination(deg)": 53.0,
        "Latitude(deg)": 12.507751095166876,
        "Longitude(deg)": 20.418539622673748,
        "Mean Anomaly(deg)": -195.73676879644327,
        "RAAN(deg)": 309.99948122992254,
        "Satellite Name": "Starlink Shell 1 1374",
        "Satellite Number": 1374,
        "Semi-Major Axis(m)": 6931778.249405717,
        "Time(s)": 10
    },
    {
        "Altitude(m)": 553481.7984502907,
        "Argument of Periapsis(deg)": 0.0006971569590224737,
        "Eccentricity": 0.0,
        "Inclination(deg)": 53.0,
        "Latitude(deg)": 12.010598168470223,
        "Longitude(deg)": 20.77169493265323,
        "Mean Anomaly(deg)": -195.10993759288655,
        "RAAN(deg)": 309.9989624598451,
        "Satellite Name": "Starlink Shell 1 1374",
        "Satellite Number": 1374,
        "Semi-Major Axis(m)": 6931778.249405717,
        "Time(s)": 20
    },
    {
        "Altitude(m)": 553482.3355541426,
        "Argument of Periapsis(deg)": 0.0010457354385337105,
        "Eccentricity": 0.0,
        "Inclination(deg)": 53.0,
        "Latitude(deg)": 11.512878389299205,
        "Longitude(deg)": 21.123402435339102,
        "Mean Anomaly(deg)": -194.48310638932986,
        "RAAN(deg)": 309.99844368976756,
        "Satellite Name": "Starlink Shell 1 1374",
        "Satellite Number": 1374,
        "Semi-Major Axis(m)": 6931778.249405717,
        "Time(s)": 30
    },
    {
        "Altitude(m)": 553485.5010777714,
        "Argument of Periapsis(deg)": 0.0013943139180449475,
        "Eccentricity": 0.0,
        "Inclination(deg)": 53.0,
        "Latitude(deg)": 11.014618092362198,
        "Longitude(deg)": 21.47372731317711,
        "Mean Anomaly(deg)": -193.8562751857731,
        "RAAN(deg)": 309.9979249196901,
        "Satellite Name": "Starlink Shell 1 1374",
        "Satellite Number": 1374,
        "Semi-Major Axis(m)": 6931778.249405717,
        "Time(s)": 40
    },
    {
        "Altitude(m)": 553491.3164712309,
        "Argument of Periapsis(deg)": 0.0017428923975561844,
        "Eccentricity": 0.0,
        "Inclination(deg)": 53.0,
        "Latitude(deg)": 10.515843317242,
        "Longitude(deg)": 21.822733645998483,
        "Mean Anomaly(deg)": -193.22944398221645,
        "RAAN(deg)": 309.9974061496127,
        "Satellite Name": "Starlink Shell 1 1374",
        "Satellite Number": 1374,
        "Semi-Major Axis(m)": 6931778.249405717,
        "Time(s)": 50
    },
    {
        "Altitude(m)": 553499.801963085,
        "Argument of Periapsis(deg)": 0.002091470877067421,
        "Eccentricity": 0.0,
        "Inclination(deg)": 53.0,
        "Latitude(deg)": 10.016579823020665,
        "Longitude(deg)": 22.170484942045263,
        "Mean Anomaly(deg)": -192.60261277865968,
        "RAAN(deg)": 309.99688737953517,
        "Satellite Name": "Starlink Shell 1 1374",
        "Satellite Number": 1374,
        "Semi-Major Axis(m)": 6931778.249405717,
        "Time(s)": 60
    },
    {
        "Altitude(m)": 553510.9765476009,
        "Argument of Periapsis(deg)": 0.0024400493565786582,
        "Eccentricity": 0.0,
        "Inclination(deg)": 53.0,
        "Latitude(deg)": 9.516853102646976,
        "Longitude(deg)": 22.517044668914938,
        "Mean Anomaly(deg)": -191.97578157510304,
        "RAAN(deg)": 309.99636860945765,
        "Satellite Name": "Starlink Shell 1 1374",
        "Satellite Number": 1374,
        "Semi-Major Axis(m)": 6931778.249405717,
        "Time(s)": 70
    },
    {
        "Altitude(m)": 553524.8579725561,
        "Argument of Periapsis(deg)": 0.002788627836089895,
        "Eccentricity": 0.0,
        "Inclination(deg)": 53.0,
        "Latitude(deg)": 9.016688397052237,
        "Longitude(deg)": 22.86247527154771,
        "Mean Anomaly(deg)": -191.34895037154627,
        "RAAN(deg)": 309.99584983938024,
        "Satellite Name": "Starlink Shell 1 1374",
        "Satellite Number": 1374,
        "Semi-Major Axis(m)": 6931778.249405717,
        "Time(s)": 80
    },
    {
        "Altitude(m)": 553541.4627276491,
        "Argument of Periapsis(deg)": 0.0031372063156011316,
        "Eccentricity": 0.0,
        "Inclination(deg)": 53.0,
        "Latitude(deg)": 8.516110709036138,
        "Longitude(deg)": 23.20683870299645,
        "Mean Anomaly(deg)": -190.7221191679896,
        "RAAN(deg)": 309.9953310693028,
        "Satellite Name": "Starlink Shell 1 1374",
        "Satellite Number": 1374,
        "Semi-Major Axis(m)": 6931778.249405717,
        "Time(s)": 90
    },
    {
        "Altitude(m)": 553560.8060335368,
        "Argument of Periapsis(deg)": 0.0034857847951123688,
        "Eccentricity": 0.0,
        "Inclination(deg)": 53.0,
        "Latitude(deg)": 8.015144816928913,
        "Longitude(deg)": 23.550196955105843,
        "Mean Anomaly(deg)": -190.0952879644328,
        "RAAN(deg)": 309.99481229922526,
        "Satellite Name": "Starlink Shell 1 1374",
        "Satellite Number": 1374,
        "Semi-Major Axis(m)": 6931778.249405717,
        "Time(s)": 100
    },
    {
        "Altitude(m)": 553582.9018314774,
        "Argument of Periapsis(deg)": 0.003834363274623606,
        "Eccentricity": 0.0,
        "Inclination(deg)": 53.0,
        "Latitude(deg)": 7.513815288042033,
        "Longitude(deg)": 23.892611076222988,
        "Mean Anomaly(deg)": -189.4684567608761,
        "RAAN(deg)": 309.9942935291478,
        "Satellite Name": "Starlink Shell 1 1374",
        "Satellite Number": 1374,
        "Semi-Major Axis(m)": 6931778.249405717,
        "Time(s)": 110
    },
    {
        "Altitude(m)": 553607.7627736569,
        "Argument of Periapsis(deg)": 0.004182941754134842,
        "Eccentricity": 0.0,
        "Inclination(deg)": 53.0,
        "Latitude(deg)": 7.012146491922356,
        "Longitude(deg)": 24.234141701687914,
        "Mean Anomaly(deg)": -188.84162555731942,
        "RAAN(deg)": 309.99377475907033,
        "Satellite Name": "Starlink Shell 1 1374",
        "Satellite Number": 1374,
        "Semi-Major Axis(m)": 6931778.249405717,
        "Time(s)": 120
    },
    {
        "Altitude(m)": 553635.400214082,
        "Argument of Periapsis(deg)": 0.004531520233646079,
        "Eccentricity": 0.0,
        "Inclination(deg)": 53.0,
        "Latitude(deg)": 6.510162613421401,
        "Longitude(deg)": 24.574849584229458,
        "Mean Anomaly(deg)": -188.21479435376276,
        "RAAN(deg)": 309.99325598899287,
        "Satellite Name": "Starlink Shell 1 1374",
        "Satellite Number": 1374,
        "Semi-Major Axis(m)": 6931778.249405717,
        "Time(s)": 130
    },
    {
        "Altitude(m)": 553665.8242001875,
        "Argument of Periapsis(deg)": 0.0048800987131573164,
        "Eccentricity": 0.0,
        "Inclination(deg)": 53.0,
        "Latitude(deg)": 6.007887665587519,
        "Longitude(deg)": 24.91479461139601,
        "Mean Anomaly(deg)": -187.58796315020592,
        "RAAN(deg)": 309.9927372189154,
        "Satellite Name": "Starlink Shell 1 1374",
        "Satellite Number": 1374,
        "Semi-Major Axis(m)": 6931778.249405717,
        "Time(s)": 140
    },
    {
        "Altitude(m)": 553699.0434650345,
        "Argument of Periapsis(deg)": 0.005228677192668553,
        "Eccentricity": 0.0,
        "Inclination(deg)": 53.0,
        "Latitude(deg)": 5.5053455023989555,
        "Longitude(deg)": 25.25403633576831,
        "Mean Anomaly(deg)": -186.96113194664923,
        "RAAN(deg)": 309.9922184488379,
        "Satellite Name": "Starlink Shell 1 1374",
        "Satellite Number": 1374,
        "Semi-Major Axis(m)": 6931778.249405717,
        "Time(s)": 150
    },
    {
        "Altitude(m)": 553735.0654202037,
        "Argument of Periapsis(deg)": 0.00557725567217979,
        "Eccentricity": 0.0,
        "Inclination(deg)": 53.0,
        "Latitude(deg)": 5.002559831346374,
        "Longitude(deg)": 25.592634505086835,
        "Mean Anomaly(deg)": -186.33430074309257,
        "RAAN(deg)": 309.9916996787604,
        "Satellite Name": "Starlink Shell 1 1374",
        "Satellite Number": 1374,
        "Semi-Major Axis(m)": 6931778.249405717,
        "Time(s)": 160
    },
    {
        "Altitude(m)": 553773.8961493289,
        "Argument of Periapsis(deg)": 0.0059258341516910265,
        "Eccentricity": 0.0,
        "Inclination(deg)": 53.0,
        "Latitude(deg)": 4.4995542258743395,
        "Longitude(deg)": 25.93064807942125,
        "Mean Anomaly(deg)": -185.70746953953588,
        "RAAN(deg)": 309.991180908683,
        "Satellite Name": "Starlink Shell 1 1374",
        "Satellite Number": 1374,
        "Semi-Major Axis(m)": 6931778.249405717,
        "Time(s)": 170
    },
    {
        "Altitude(m)": 553815.5404022743,
        "Argument of Periapsis(deg)": 0.006274412631202263,
        "Eccentricity": 0.0,
        "Inclination(deg)": 53.0,
        "Latitude(deg)": 3.996352137699005,
        "Longitude(deg)": 26.268135761134598,
        "Mean Anomaly(deg)": -185.08063833597907,
        "RAAN(deg)": 309.9906621386055,
        "Satellite Name": "Starlink Shell 1 1374",
        "Satellite Number": 1374,
        "Semi-Major Axis(m)": 6931778.249405717,
        "Time(s)": 180
    }
]